OBJECT_NAME,OBJECT_ID,EPOCH,MEAN_MOTION,ECCENTRICITY,INCLINATION,RA_OF_ASC_NODE,ARG_OF_PERICENTER,MEAN_ANOMALY,EPHEMERIS_TYPE,CLASSIFICATION_TYPE,NORAD_CAT_ID,ELEMENT_SET_NO,REV_AT_EPOCH,BSTAR,MEAN_MOTION_DOT,MEAN_MOTION_DDOT
TIANMU-1 20,2023-208B,2026-06-11T13:54:35.692992,15.32680439,.00064944,97.4436,279.4808,355.9133,4.2055,0,U,58661,999,13656,.22712767E-3,.7092E-4,0
TIANMU-1 21,2023-208C,2026-06-11T13:49:55.566912,15.34977866,.0006387,97.4495,282.1339,347.2073,12.9007,0,U,58662,999,13670,.26075749E-3,.8772E-4,0
TIANMU-1 22,2023-208D,2026-06-11T13:59:01.995936,15.30979535,.00037439,97.4490,278.7951,23.8999,336.2415,0,U,58663,999,13647,.22410309E-3,.6631E-4,0
TIANMU-1 15,2024-004A,2026-06-11T15:49:52.838976,15.26967187,.00072631,97.4668,348.8497,21.4332,338.7209,0,U,58700,999,13493,.20674288E-3,.5402E-4,0
TIANMU-1 16,2024-004B,2026-06-11T15:32:56.812128,15.26692274,.00063807,97.4614,348.0810,26.3544,333.8018,0,U,58701,999,13493,.20475102E-3,.5303E-4,0
TIANMU-1 17,2024-004C,2026-06-11T15:11:59.732736,15.26691075,.00060587,97.4643,348.5494,32.1377,328.0230,0,U,58702,999,13492,.1904456E-3,.4927E-4,0
TIANMU-1 18,2024-004D,2026-06-11T14:39:20.729376,15.26949230,.00045858,97.4661,348.7787,32.6756,327.4765,0,U,58703,999,13492,.18876952E-3,.4921E-4,0
INSAT-3DS,2024-033A,2026-06-11T13:38:05.714016,1.00272237,.00010912,0.0391,129.9266,304.6052,111.9984,0,U,58990,999,4701,0,-.139E-5,0
METEOR-M2 4,2024-039A,2026-06-11T15:02:01.904352,14.22429002,.00069612,98.7008,121.9944,176.7097,183.4128,0,U,59051,999,11847,.21004219E-4,.3E-7,0
GOES 19,2024-119A,2026-06-11T12:53:17.720160,1.00270767,.00004781,0.0467,149.5263,23.3707,205.1244,0,U,60133,999,690,0,-.231E-5,0
MTG-S1,2025-143A,2026-06-11T08:05:42.897984,1.00271596,.00009689,0.6085,337.5964,19.3395,20.7012,0,U,64723,999,336,0,-.15E-6,0
METOP-SGA1,2025-172A,2026-06-11T13:52:31.240704,14.21508910,.00009442,98.6645,222.4081,89.4591,270.6694,0,U,65159,999,4299,.34588979E-4,.32E-6,0
FENGYUN 3H,2025-219A,2026-06-11T09:41:24.637632,14.19919471,.00016256,98.6768,103.2854,81.0009,279.1352,0,U,65815,999,3656,.32190493E-4,.25E-6,0
