TIANMU-1 20             
1 58661U 23208B   26162.57957978  .00007092  00000+0  22713-3 0  9990
2 58661  97.4436 279.4808 0006494 355.9133   4.2055 15.32680439136569
TIANMU-1 21             
1 58662U 23208C   26162.57633758  .00008772  00000+0  26076-3 0  9990
2 58662  97.4495 282.1339 0006387 347.2073  12.9007 15.34977866136707
TIANMU-1 22             
1 58663U 23208D   26162.58266199  .00006631  00000+0  22410-3 0  9993
2 58663  97.4490 278.7951 0003743  23.8999 336.2415 15.30979535136471
TIANMU-1 15             
1 58700U 24004A   26162.65963934  .00005402  00000+0  20674-3 0  9994
2 58700  97.4668 348.8497 0007263  21.4332 338.7209 15.26967187134932
TIANMU-1 16             
1 58701U 24004B   26162.64787977  .00005303  00000+0  20475-3 0  9994
2 58701  97.4614 348.0810 0006380  26.3544 333.8018 15.26692274134939
TIANMU-1 17             
1 58702U 24004C   26162.63333024  .00004927  00000+0  19045-3 0  9996
2 58702  97.4643 348.5494 0006058  32.1377 328.0230 15.26691075134925
TIANMU-1 18             
1 58703U 24004D   26162.61065659  .00004921  00000+0  18877-3 0  9997
2 58703  97.4661 348.7787 0004585  32.6756 327.4765 15.26949230134927
INSAT-3DS               
1 58990U 24033A   26162.56812169 -.00000139  00000+0  00000+0 0  9990
2 58990   0.0391 129.9266 0001091 304.6052 111.9984  1.00272237 47011
METEOR-M2 4             
1 59051U 24039A   26162.62641093  .00000003  00000+0  21004-4 0  9999
2 59051  98.7008 121.9944 0006961 176.7097 183.4128 14.22429002118477
GOES 19                 
1 60133U 24119A   26162.53701065 -.00000231  00000+0  00000+0 0  9999
2 60133   0.0467 149.5263 0000478  23.3707 205.1244  1.00270767  6906
MTG-S1                  
1 64723U 25143A   26162.33730206 -.00000015  00000+0  00000+0 0  9993
2 64723   0.6085 337.5964 0000968  19.3395  20.7012  1.00271596  3368
METOP-SGA1              
1 65159U 25172A   26162.57813936  .00000032  00000+0  34589-4 0  9999
2 65159  98.6645 222.4081 0000944  89.4591 270.6694 14.21508910 42997
FENGYUN 3H              
1 65815U 25219A   26162.40375738  .00000025  00000+0  32190-4 0  9993
2 65815  98.6768 103.2854 0001625  81.0009 279.1352 14.19919471 36561
